{
"type": "FeatureCollection",
"name": "grid_centroids",
"crs": { "type": "name", "properties": { "name": "urn:ogc:def:crs:OGC:1.3:CRS84" } },
"features": [
{ "type": "Feature", "properties": { "cell_id": 0, "area_m2": 703.91376058756418, "centroid_x": 713264.81116254663, "centroid_y": 3159384.894577364, "lat": 28.543814136986622, "lon": 77.179787830333737 }, "geometry": { "type": "Point", "coordinates": [ 77.179787830333737, 28.543814136986622 ] } },
{ "type": "Feature", "properties": { "cell_id": 1, "area_m2": 2088.5151303570192, "centroid_x": 713259.09250454686, "centroid_y": 3159418.2778125298, "lat": 28.544116192621171, "lon": 77.179735616502342 }, "geometry": { "type": "Point", "coordinates": [ 77.179735616502342, 28.544116192621171 ] } },
{ "type": "Feature", "properties": { "cell_id": 2, "area_m2": 1196.9337689311942, "centroid_x": 713267.75118834712, "centroid_y": 3159466.8847454395, "lat": 28.54455320762904, "lon": 77.179833095757033 }, "geometry": { "type": "Point", "coordinates": [ 77.179833095757033, 28.54455320762904 ] } },
{ "type": "Feature", "properties": { "cell_id": 3, "area_m2": 2204.2338129640921, "centroid_x": 713307.28949714731, "centroid_y": 3159372.4815794956, "lat": 28.543695202109966, "lon": 77.180219438182689 }, "geometry": { "type": "Point", "coordinates": [ 77.180219438182689, 28.543695202109966 ] } },
{ "type": "Feature", "properties": { "cell_id": 4, "area_m2": 2500.0, "centroid_x": 713305.28044849285, "centroid_y": 3159420.006568355, "lat": 28.544124208029384, "lon": 77.180207747082022 }, "geometry": { "type": "Point", "coordinates": [ 77.180207747082022, 28.544124208029384 ] } },
{ "type": "Feature", "properties": { "cell_id": 5, "area_m2": 2500.0, "centroid_x": 713305.28044849285, "centroid_y": 3159470.006568355, "lat": 28.544575208908743, "lon": 77.18021703842868 }, "geometry": { "type": "Point", "coordinates": [ 77.18021703842868, 28.544575208908743 ] } },
{ "type": "Feature", "properties": { "cell_id": 6, "area_m2": 2487.7466039890787, "centroid_x": 713305.39871803275, "centroid_y": 3159519.8970014062, "lat": 28.545025202052482, "lon": 77.180227517760002 }, "geometry": { "type": "Point", "coordinates": [ 77.180227517760002, 28.545025202052482 ] } },
{ "type": "Feature", "properties": { "cell_id": 7, "area_m2": 1903.3584400342079, "centroid_x": 713310.89475485124, "centroid_y": 3159568.043398839, "lat": 28.545458581453264, "lon": 77.180292607727566 }, "geometry": { "type": "Point", "coordinates": [ 77.180292607727566, 28.545458581453264 ] } },
{ "type": "Feature", "properties": { "cell_id": 8, "area_m2": 1006.5707755828043, "centroid_x": 713319.54892556299, "centroid_y": 3159616.2943452718, "lat": 28.54589238552531, "lon": 77.180389978617526 }, "geometry": { "type": "Point", "coordinates": [ 77.180389978617526, 28.54589238552531 ] } },
{ "type": "Feature", "properties": { "cell_id": 9, "area_m2": 1468.1054737186059, "centroid_x": 713359.91852507985, "centroid_y": 3159328.8096004459, "lat": 28.543292643472395, "lon": 77.180748923641303 }, "geometry": { "type": "Point", "coordinates": [ 77.180748923641303, 28.543292643472395 ] } },
{ "type": "Feature", "properties": { "cell_id": 10, "area_m2": 2500.0, "centroid_x": 713355.28044849285, "centroid_y": 3159370.006568355, "lat": 28.543665001979573, "lon": 77.180709203090572 }, "geometry": { "type": "Point", "coordinates": [ 77.180709203090572, 28.543665001979573 ] } },
{ "type": "Feature", "properties": { "cell_id": 11, "area_m2": 2500.0, "centroid_x": 713355.28044849285, "centroid_y": 3159420.006568355, "lat": 28.544116002738537, "lon": 77.180718496396025 }, "geometry": { "type": "Point", "coordinates": [ 77.180718496396025, 28.544116002738537 ] } },
{ "type": "Feature", "properties": { "cell_id": 12, "area_m2": 2500.0, "centroid_x": 713355.28044849285, "centroid_y": 3159470.006568355, "lat": 28.54456700346476, "lon": 77.180727789915125 }, "geometry": { "type": "Point", "coordinates": [ 77.180727789915125, 28.54456700346476 ] } },
{ "type": "Feature", "properties": { "cell_id": 13, "area_m2": 2500.0, "centroid_x": 713355.28044849285, "centroid_y": 3159520.006568355, "lat": 28.545018004158234, "lon": 77.180737083647884 }, "geometry": { "type": "Point", "coordinates": [ 77.180737083647884, 28.545018004158234 ] } },
{ "type": "Feature", "properties": { "cell_id": 14, "area_m2": 2500.0, "centroid_x": 713355.28044849285, "centroid_y": 3159570.006568355, "lat": 28.545469004818955, "lon": 77.180746377594318 }, "geometry": { "type": "Point", "coordinates": [ 77.180746377594318, 28.545469004818955 ] } },
{ "type": "Feature", "properties": { "cell_id": 15, "area_m2": 2500.0, "centroid_x": 713355.28044849285, "centroid_y": 3159620.006568355, "lat": 28.545920005446941, "lon": 77.180755671754412 }, "geometry": { "type": "Point", "coordinates": [ 77.180755671754412, 28.545920005446941 ] } },
{ "type": "Feature", "properties": { "cell_id": 16, "area_m2": 2181.6724457886698, "centroid_x": 713354.30968642351, "centroid_y": 3159667.1446925816, "lat": 28.546345351230169, "lon": 77.180754517607866 }, "geometry": { "type": "Point", "coordinates": [ 77.180754517607866, 28.546345351230169 ] } },
{ "type": "Feature", "properties": { "cell_id": 17, "area_m2": 2485.8843523562346, "centroid_x": 713405.40996763366, "centroid_y": 3159320.1403953023, "lat": 28.543206980143751, "lon": 77.181212002657404 }, "geometry": { "type": "Point", "coordinates": [ 77.181212002657404, 28.543206980143751 ] } },
{ "type": "Feature", "properties": { "cell_id": 18, "area_m2": 2500.0, "centroid_x": 713405.28044849285, "centroid_y": 3159370.006568355, "lat": 28.543656794922981, "lon": 77.181219950018516 }, "geometry": { "type": "Point", "coordinates": [ 77.181219950018516, 28.543656794922981 ] } },
{ "type": "Feature", "properties": { "cell_id": 19, "area_m2": 2500.0, "centroid_x": 713405.28044849285, "centroid_y": 3159420.006568355, "lat": 28.544107795528774, "lon": 77.181229245496368 }, "geometry": { "type": "Point", "coordinates": [ 77.181229245496368, 28.544107795528774 ] } },
{ "type": "Feature", "properties": { "cell_id": 20, "area_m2": 2500.0, "centroid_x": 713405.28044849285, "centroid_y": 3159470.006568355, "lat": 28.544558796101814, "lon": 77.181238541187909 }, "geometry": { "type": "Point", "coordinates": [ 77.181238541187909, 28.544558796101814 ] } },
{ "type": "Feature", "properties": { "cell_id": 21, "area_m2": 2500.0, "centroid_x": 713405.28044849285, "centroid_y": 3159520.006568355, "lat": 28.545009796642098, "lon": 77.181247837093153 }, "geometry": { "type": "Point", "coordinates": [ 77.181247837093153, 28.545009796642098 ] } },
{ "type": "Feature", "properties": { "cell_id": 22, "area_m2": 2500.0, "centroid_x": 713405.28044849285, "centroid_y": 3159570.006568355, "lat": 28.545460797149644, "lon": 77.181257133212128 }, "geometry": { "type": "Point", "coordinates": [ 77.181257133212128, 28.545460797149644 ] } },
{ "type": "Feature", "properties": { "cell_id": 23, "area_m2": 2500.0, "centroid_x": 713405.28044849285, "centroid_y": 3159620.006568355, "lat": 28.545911797624438, "lon": 77.18126642954482 }, "geometry": { "type": "Point", "coordinates": [ 77.18126642954482, 28.545911797624438 ] } },
{ "type": "Feature", "properties": { "cell_id": 24, "area_m2": 1138.0123700131662, "centroid_x": 713400.97268072888, "centroid_y": 3159657.4003531639, "lat": 28.546249797130379, "lon": 77.181229377535303 }, "geometry": { "type": "Point", "coordinates": [ 77.181229377535303, 28.546249797130379 ] } },
{ "type": "Feature", "properties": { "cell_id": 25, "area_m2": 1426.0788778890856, "centroid_x": 713445.02243015275, "centroid_y": 3159372.6579192257, "lat": 28.543674185471712, "lon": 77.181626404764614 }, "geometry": { "type": "Point", "coordinates": [ 77.181626404764614, 28.543674185471712 ] } },
{ "type": "Feature", "properties": { "cell_id": 26, "area_m2": 2288.0628234509322, "centroid_x": 713453.34774620063, "centroid_y": 3159421.2671472784, "lat": 28.544111274184786, "lon": 77.181720486285172 }, "geometry": { "type": "Point", "coordinates": [ 77.181720486285172, 28.544111274184786 ] } },
{ "type": "Feature", "properties": { "cell_id": 27, "area_m2": 2500.0, "centroid_x": 713455.28044849285, "centroid_y": 3159470.006568355, "lat": 28.544550586819895, "lon": 77.181749292246977 }, "geometry": { "type": "Point", "coordinates": [ 77.181749292246977, 28.544550586819895 ] } },
{ "type": "Feature", "properties": { "cell_id": 28, "area_m2": 2500.0, "centroid_x": 713455.28044849285, "centroid_y": 3159520.006568355, "lat": 28.545001587206965, "lon": 77.181758590324719 }, "geometry": { "type": "Point", "coordinates": [ 77.181758590324719, 28.545001587206965 ] } },
{ "type": "Feature", "properties": { "cell_id": 29, "area_m2": 2500.0, "centroid_x": 713455.28044849285, "centroid_y": 3159570.006568355, "lat": 28.545452587561293, "lon": 77.181767888616221 }, "geometry": { "type": "Point", "coordinates": [ 77.181767888616221, 28.545452587561293 ] } },
{ "type": "Feature", "properties": { "cell_id": 30, "area_m2": 2500.0, "centroid_x": 713455.28044849285, "centroid_y": 3159620.006568355, "lat": 28.545903587882876, "lon": 77.181777187121497 }, "geometry": { "type": "Point", "coordinates": [ 77.181777187121497, 28.545903587882876 ] } },
{ "type": "Feature", "properties": { "cell_id": 31, "area_m2": 1593.4903066820877, "centroid_x": 713462.97616580769, "centroid_y": 3159666.1278634667, "lat": 28.546318338443193, "lon": 77.181864377701146 }, "geometry": { "type": "Point", "coordinates": [ 77.181864377701146, 28.546318338443193 ] } },
{ "type": "Feature", "properties": { "cell_id": 32, "area_m2": 754.02904126589976, "centroid_x": 713488.97294089431, "centroid_y": 3159475.4442149019, "lat": 28.544594101518612, "lon": 77.18209447299202 }, "geometry": { "type": "Point", "coordinates": [ 77.18209447299202, 28.544594101518612 ] } },
{ "type": "Feature", "properties": { "cell_id": 33, "area_m2": 2494.5326917087668, "centroid_x": 713505.23323481285, "centroid_y": 3159520.0605912413, "lat": 28.544993870894185, "lon": 77.182268871100661 }, "geometry": { "type": "Point", "coordinates": [ 77.182268871100661, 28.544993870894185 ] } },
{ "type": "Feature", "properties": { "cell_id": 34, "area_m2": 2500.0, "centroid_x": 713505.28044849285, "centroid_y": 3159570.006568355, "lat": 28.545444376053915, "lon": 77.182278643806555 }, "geometry": { "type": "Point", "coordinates": [ 77.182278643806555, 28.545444376053915 ] } },
{ "type": "Feature", "properties": { "cell_id": 35, "area_m2": 2500.0, "centroid_x": 713505.28044849285, "centroid_y": 3159620.006568355, "lat": 28.545895376222241, "lon": 77.182287944484401 }, "geometry": { "type": "Point", "coordinates": [ 77.182287944484401, 28.545895376222241 ] } },
{ "type": "Feature", "properties": { "cell_id": 36, "area_m2": 2500.0, "centroid_x": 713505.28044849285, "centroid_y": 3159670.006568355, "lat": 28.546346376357807, "lon": 77.182297245376077 }, "geometry": { "type": "Point", "coordinates": [ 77.182297245376077, 28.546346376357807 ] } },
{ "type": "Feature", "properties": { "cell_id": 37, "area_m2": 2498.946520176898, "centroid_x": 713505.29085664335, "centroid_y": 3159719.9963465012, "lat": 28.546797282549853, "lon": 77.182306650901722 }, "geometry": { "type": "Point", "coordinates": [ 77.182306650901722, 28.546797282549853 ] } },
{ "type": "Feature", "properties": { "cell_id": 38, "area_m2": 1937.0722276653396, "centroid_x": 713510.45104459394, "centroid_y": 3159767.7854988789, "lat": 28.547227493141648, "lon": 77.182368253671285 }, "geometry": { "type": "Point", "coordinates": [ 77.182368253671285, 28.547227493141648 ] } },
{ "type": "Feature", "properties": { "cell_id": 39, "area_m2": 904.50294789625332, "centroid_x": 713520.25311217515, "centroid_y": 3159815.2499536765, "lat": 28.547654012340182, "lon": 77.182477214912026 }, "geometry": { "type": "Point", "coordinates": [ 77.182477214912026, 28.547654012340182 ] } },
{ "type": "Feature", "properties": { "cell_id": 40, "area_m2": 2320.3040408785455, "centroid_x": 713554.82434502174, "centroid_y": 3159521.7803586475, "lat": 28.545001237101193, "lon": 77.182775767039089 }, "geometry": { "type": "Point", "coordinates": [ 77.182775767039089, 28.545001237101193 ] } },
{ "type": "Feature", "properties": { "cell_id": 41, "area_m2": 2500.0, "centroid_x": 713555.28044849285, "centroid_y": 3159570.006568355, "lat": 28.545436162627507, "lon": 77.182789398783072 }, "geometry": { "type": "Point", "coordinates": [ 77.182789398783072, 28.545436162627507 ] } },
{ "type": "Feature", "properties": { "cell_id": 42, "area_m2": 2500.0, "centroid_x": 713555.28044849285, "centroid_y": 3159620.006568355, "lat": 28.545887162642536, "lon": 77.182798701633502 }, "geometry": { "type": "Point", "coordinates": [ 77.182798701633502, 28.545887162642536 ] } },
{ "type": "Feature", "properties": { "cell_id": 43, "area_m2": 2500.0, "centroid_x": 713555.28044849285, "centroid_y": 3159670.006568355, "lat": 28.546338162624817, "lon": 77.182808004697804 }, "geometry": { "type": "Point", "coordinates": [ 77.182808004697804, 28.546338162624817 ] } },
{ "type": "Feature", "properties": { "cell_id": 44, "area_m2": 2500.0, "centroid_x": 713555.28044849285, "centroid_y": 3159720.006568355, "lat": 28.546789162574338, "lon": 77.182817307975981 }, "geometry": { "type": "Point", "coordinates": [ 77.182817307975981, 28.546789162574338 ] } },
{ "type": "Feature", "properties": { "cell_id": 45, "area_m2": 2500.0, "centroid_x": 713555.28044849285, "centroid_y": 3159770.006568355, "lat": 28.547240162491104, "lon": 77.18282661146803 }, "geometry": { "type": "Point", "coordinates": [ 77.18282661146803, 28.547240162491104 ] } },
{ "type": "Feature", "properties": { "cell_id": 46, "area_m2": 2500.0, "centroid_x": 713555.28044849285, "centroid_y": 3159820.006568355, "lat": 28.547691162375123, "lon": 77.182835915173953 }, "geometry": { "type": "Point", "coordinates": [ 77.182835915173953, 28.547691162375123 ] } },
{ "type": "Feature", "properties": { "cell_id": 47, "area_m2": 2298.9538411887847, "centroid_x": 713557.09106570063, "centroid_y": 3159868.7298207129, "lat": 28.548130348470256, "lon": 77.182863477617005 }, "geometry": { "type": "Point", "coordinates": [ 77.182863477617005, 28.548130348470256 ] } },
{ "type": "Feature", "properties": { "cell_id": 48, "area_m2": 1339.3643883551704, "centroid_x": 713566.22343066917, "centroid_y": 3159916.7943192944, "lat": 28.548562389494748, "lon": 77.182965712398826 }, "geometry": { "type": "Point", "coordinates": [ 77.182965712398826, 28.548562389494748 ] } },
{ "type": "Feature", "properties": { "cell_id": 49, "area_m2": 2066.3123464328237, "centroid_x": 713604.76828065491, "centroid_y": 3159524.3174276152, "lat": 28.545015915491341, "lon": 77.183286419140813 }, "geometry": { "type": "Point", "coordinates": [ 77.183286419140813, 28.545015915491341 ] } },
{ "type": "Feature", "properties": { "cell_id": 50, "area_m2": 2500.0, "centroid_x": 713605.28044849285, "centroid_y": 3159570.006568355, "lat": 28.545427947282075, "lon": 77.183300153545702 }, "geometry": { "type": "Point", "coordinates": [ 77.183300153545702, 28.545427947282075 ] } },
{ "type": "Feature", "properties": { "cell_id": 51, "area_m2": 2500.0, "centroid_x": 713605.28044849285, "centroid_y": 3159620.006568355, "lat": 28.545878947143787, "lon": 77.183309458568729 }, "geometry": { "type": "Point", "coordinates": [ 77.183309458568729, 28.545878947143787 ] } },
{ "type": "Feature", "properties": { "cell_id": 52, "area_m2": 2500.0, "centroid_x": 713605.28044849285, "centroid_y": 3159670.006568355, "lat": 28.546329946972726, "lon": 77.183318763805644 }, "geometry": { "type": "Point", "coordinates": [ 77.183318763805644, 28.546329946972726 ] } },
{ "type": "Feature", "properties": { "cell_id": 53, "area_m2": 2500.0, "centroid_x": 713605.28044849285, "centroid_y": 3159720.006568355, "lat": 28.546780946768923, "lon": 77.18332806925649 }, "geometry": { "type": "Point", "coordinates": [ 77.18332806925649, 28.546780946768923 ] } },
{ "type": "Feature", "properties": { "cell_id": 54, "area_m2": 2500.0, "centroid_x": 713605.28044849285, "centroid_y": 3159770.006568355, "lat": 28.547231946532367, "lon": 77.18333737492128 }, "geometry": { "type": "Point", "coordinates": [ 77.18333737492128, 28.547231946532367 ] } },
{ "type": "Feature", "properties": { "cell_id": 55, "area_m2": 2500.0, "centroid_x": 713605.28044849285, "centroid_y": 3159820.006568355, "lat": 28.547682946263045, "lon": 77.183346680799971 }, "geometry": { "type": "Point", "coordinates": [ 77.183346680799971, 28.547682946263045 ] } },
{ "type": "Feature", "properties": { "cell_id": 56, "area_m2": 2500.0, "centroid_x": 713605.28044849285, "centroid_y": 3159870.006568355, "lat": 28.54813394596097, "lon": 77.183355986892622 }, "geometry": { "type": "Point", "coordinates": [ 77.183355986892622, 28.54813394596097 ] } },
{ "type": "Feature", "properties": { "cell_id": 57, "area_m2": 2500.0, "centroid_x": 713605.28044849285, "centroid_y": 3159920.006568355, "lat": 28.548584945626143, "lon": 77.183365293199216 }, "geometry": { "type": "Point", "coordinates": [ 77.183365293199216, 28.548584945626143 ] } },
{ "type": "Feature", "properties": { "cell_id": 58, "area_m2": 2478.749191660283, "centroid_x": 713605.48280514823, "centroid_y": 3159969.8212274988, "lat": 28.549034240227996, "lon": 77.183376632384153 }, "geometry": { "type": "Point", "coordinates": [ 77.183376632384153, 28.549034240227996 ] } },
{ "type": "Feature", "properties": { "cell_id": 59, "area_m2": 1774.2258288169978, "centroid_x": 713612.03740872745, "centroid_y": 3160017.5816391669, "lat": 28.549463961469158, "lon": 77.183452480690235 }, "geometry": { "type": "Point", "coordinates": [ 77.183452480690235, 28.549463961469158 ] } },
{ "type": "Feature", "properties": { "cell_id": 60, "area_m2": 741.65654904500116, "centroid_x": 713621.66588989832, "centroid_y": 3160064.2055382095, "lat": 28.549882926029682, "lon": 77.183559519429892 }, "geometry": { "type": "Point", "coordinates": [ 77.183559519429892, 28.549882926029682 ] } },
{ "type": "Feature", "properties": { "cell_id": 61, "area_m2": 2057.3877813564513, "centroid_x": 713656.57004913769, "centroid_y": 3159524.2235173541, "lat": 28.545006555174371, "lon": 77.183815559379681 }, "geometry": { "type": "Point", "coordinates": [ 77.183815559379681, 28.545006555174371 ] } },
{ "type": "Feature", "properties": { "cell_id": 62, "area_m2": 2500.0, "centroid_x": 713655.28044849285, "centroid_y": 3159570.006568355, "lat": 28.545419730017617, "lon": 77.183810908094443 }, "geometry": { "type": "Point", "coordinates": [ 77.183810908094443, 28.545419730017617 ] } },
{ "type": "Feature", "properties": { "cell_id": 63, "area_m2": 2500.0, "centroid_x": 713655.28044849285, "centroid_y": 3159620.006568355, "lat": 28.545870729725966, "lon": 77.183820215290027 }, "geometry": { "type": "Point", "coordinates": [ 77.183820215290027, 28.545870729725966 ] } },
{ "type": "Feature", "properties": { "cell_id": 64, "area_m2": 2500.0, "centroid_x": 713655.28044849285, "centroid_y": 3159670.006568355, "lat": 28.546321729401548, "lon": 77.183829522699568 }, "geometry": { "type": "Point", "coordinates": [ 77.183829522699568, 28.546321729401548 ] } },
{ "type": "Feature", "properties": { "cell_id": 65, "area_m2": 2500.0, "centroid_x": 713655.28044849285, "centroid_y": 3159720.006568355, "lat": 28.546772729044378, "lon": 77.183838830323097 }, "geometry": { "type": "Point", "coordinates": [ 77.183838830323097, 28.546772729044378 ] } },
{ "type": "Feature", "properties": { "cell_id": 66, "area_m2": 2500.0, "centroid_x": 713655.28044849285, "centroid_y": 3159770.006568355, "lat": 28.547223728654451, "lon": 77.183848138160599 }, "geometry": { "type": "Point", "coordinates": [ 77.183848138160599, 28.547223728654451 ] } },
{ "type": "Feature", "properties": { "cell_id": 67, "area_m2": 2500.0, "centroid_x": 713655.28044849285, "centroid_y": 3159820.006568355, "lat": 28.547674728231765, "lon": 77.183857446212073 }, "geometry": { "type": "Point", "coordinates": [ 77.183857446212073, 28.547674728231765 ] } },
{ "type": "Feature", "properties": { "cell_id": 68, "area_m2": 2500.0, "centroid_x": 713655.28044849285, "centroid_y": 3159870.006568355, "lat": 28.548125727776323, "lon": 77.183866754477535 }, "geometry": { "type": "Point", "coordinates": [ 77.183866754477535, 28.548125727776323 ] } },
{ "type": "Feature", "properties": { "cell_id": 69, "area_m2": 2500.0, "centroid_x": 713655.28044849285, "centroid_y": 3159920.006568355, "lat": 28.548576727288125, "lon": 77.183876062956983 }, "geometry": { "type": "Point", "coordinates": [ 77.183876062956983, 28.548576727288125 ] } },
{ "type": "Feature", "properties": { "cell_id": 70, "area_m2": 2500.0, "centroid_x": 713655.28044849285, "centroid_y": 3159970.006568355, "lat": 28.549027726767164, "lon": 77.183885371650419 }, "geometry": { "type": "Point", "coordinates": [ 77.183885371650419, 28.549027726767164 ] } },
{ "type": "Feature", "properties": { "cell_id": 71, "area_m2": 2500.0, "centroid_x": 713655.28044849285, "centroid_y": 3160020.006568355, "lat": 28.549478726213451, "lon": 77.18389468055787 }, "geometry": { "type": "Point", "coordinates": [ 77.18389468055787, 28.549478726213451 ] } },
{ "type": "Feature", "properties": { "cell_id": 72, "area_m2": 2500.0, "centroid_x": 713655.28044849285, "centroid_y": 3160070.006568355, "lat": 28.549929725626974, "lon": 77.183903989679322 }, "geometry": { "type": "Point", "coordinates": [ 77.183903989679322, 28.549929725626974 ] } },
{ "type": "Feature", "properties": { "cell_id": 73, "area_m2": 1797.0344898721089, "centroid_x": 713656.23163598555, "centroid_y": 3160113.9034141242, "lat": 28.55032551826039, "lon": 77.183921879591438 }, "geometry": { "type": "Point", "coordinates": [ 77.183921879591438, 28.55032551826039 ] } },
{ "type": "Feature", "properties": { "cell_id": 74, "area_m2": 2500.0, "centroid_x": 713705.28044849285, "centroid_y": 3159520.006568355, "lat": 28.544960511246444, "lon": 77.184312353275089 }, "geometry": { "type": "Point", "coordinates": [ 77.184312353275089, 28.544960511246444 ] } },
{ "type": "Feature", "properties": { "cell_id": 75, "area_m2": 2500.0, "centroid_x": 713705.28044849285, "centroid_y": 3159570.006568355, "lat": 28.545411510834143, "lon": 77.184321662429213 }, "geometry": { "type": "Point", "coordinates": [ 77.184321662429213, 28.545411510834143 ] } },
{ "type": "Feature", "properties": { "cell_id": 76, "area_m2": 2500.0, "centroid_x": 713705.28044849285, "centroid_y": 3159620.006568355, "lat": 28.545862510389096, "lon": 77.184330971797351 }, "geometry": { "type": "Point", "coordinates": [ 77.184330971797351, 28.545862510389096 ] } },
{ "type": "Feature", "properties": { "cell_id": 77, "area_m2": 2500.0, "centroid_x": 713705.28044849285, "centroid_y": 3159670.006568355, "lat": 28.546313509911275, "lon": 77.184340281379519 }, "geometry": { "type": "Point", "coordinates": [ 77.184340281379519, 28.546313509911275 ] } },
{ "type": "Feature", "properties": { "cell_id": 78, "area_m2": 2500.0, "centroid_x": 713705.28044849285, "centroid_y": 3159720.006568355, "lat": 28.546764509400706, "lon": 77.184349591175703 }, "geometry": { "type": "Point", "coordinates": [ 77.184349591175703, 28.546764509400706 ] } },
{ "type": "Feature", "properties": { "cell_id": 79, "area_m2": 2500.0, "centroid_x": 713705.28044849285, "centroid_y": 3159770.006568355, "lat": 28.547215508857374, "lon": 77.184358901185917 }, "geometry": { "type": "Point", "coordinates": [ 77.184358901185917, 28.547215508857374 ] } },
{ "type": "Feature", "properties": { "cell_id": 80, "area_m2": 2500.0, "centroid_x": 713705.28044849285, "centroid_y": 3159820.006568355, "lat": 28.547666508281289, "lon": 77.18436821141016 }, "geometry": { "type": "Point", "coordinates": [ 77.18436821141016, 28.547666508281289 ] } },
{ "type": "Feature", "properties": { "cell_id": 81, "area_m2": 2500.0, "centroid_x": 713705.28044849285, "centroid_y": 3159870.006568355, "lat": 28.54811750767244, "lon": 77.184377521848447 }, "geometry": { "type": "Point", "coordinates": [ 77.184377521848447, 28.54811750767244 ] } },
{ "type": "Feature", "properties": { "cell_id": 82, "area_m2": 2500.0, "centroid_x": 713705.28044849285, "centroid_y": 3159920.006568355, "lat": 28.548568507030836, "lon": 77.184386832500778 }, "geometry": { "type": "Point", "coordinates": [ 77.184386832500778, 28.548568507030836 ] } },
{ "type": "Feature", "properties": { "cell_id": 83, "area_m2": 2500.0, "centroid_x": 713705.28044849285, "centroid_y": 3159970.006568355, "lat": 28.549019506356473, "lon": 77.184396143367124 }, "geometry": { "type": "Point", "coordinates": [ 77.184396143367124, 28.549019506356473 ] } },
{ "type": "Feature", "properties": { "cell_id": 84, "area_m2": 2500.0, "centroid_x": 713705.28044849285, "centroid_y": 3160020.006568355, "lat": 28.549470505649346, "lon": 77.184405454447528 }, "geometry": { "type": "Point", "coordinates": [ 77.184405454447528, 28.549470505649346 ] } },
{ "type": "Feature", "properties": { "cell_id": 85, "area_m2": 2500.0, "centroid_x": 713705.28044849285, "centroid_y": 3160070.006568355, "lat": 28.549921504909463, "lon": 77.184414765741991 }, "geometry": { "type": "Point", "coordinates": [ 77.184414765741991, 28.549921504909463 ] } },
{ "type": "Feature", "properties": { "cell_id": 86, "area_m2": 1022.9558156919666, "centroid_x": 713700.86507740791, "centroid_y": 3160106.193392287, "lat": 28.550248635542854, "lon": 77.184376399351549 }, "geometry": { "type": "Point", "coordinates": [ 77.184376399351549, 28.550248635542854 ] } },
{ "type": "Feature", "properties": { "cell_id": 87, "area_m2": 1739.0220843954012, "centroid_x": 713758.03448055848, "centroid_y": 3159476.9832300092, "lat": 28.544563767382446, "lon": 77.184843225743194 }, "geometry": { "type": "Point", "coordinates": [ 77.184843225743194, 28.544563767382446 ] } },
{ "type": "Feature", "properties": { "cell_id": 88, "area_m2": 2500.0, "centroid_x": 713755.28044849285, "centroid_y": 3159520.006568355, "lat": 28.544952290297385, "lon": 77.184823105223316 }, "geometry": { "type": "Point", "coordinates": [ 77.184823105223316, 28.544952290297385 ] } },
{ "type": "Feature", "properties": { "cell_id": 89, "area_m2": 2500.0, "centroid_x": 713755.28044849285, "centroid_y": 3159570.006568355, "lat": 28.545403289731656, "lon": 77.184832416549966 }, "geometry": { "type": "Point", "coordinates": [ 77.184832416549966, 28.545403289731656 ] } },
{ "type": "Feature", "properties": { "cell_id": 90, "area_m2": 2500.0, "centroid_x": 713755.28044849285, "centroid_y": 3159620.006568355, "lat": 28.545854289133167, "lon": 77.184841728090674 }, "geometry": { "type": "Point", "coordinates": [ 77.184841728090674, 28.545854289133167 ] } },
{ "type": "Feature", "properties": { "cell_id": 91, "area_m2": 2500.0, "centroid_x": 713755.28044849285, "centroid_y": 3159670.006568355, "lat": 28.54630528850192, "lon": 77.184851039845441 }, "geometry": { "type": "Point", "coordinates": [ 77.184851039845441, 28.54630528850192 ] } },
{ "type": "Feature", "properties": { "cell_id": 92, "area_m2": 2500.0, "centroid_x": 713755.28044849285, "centroid_y": 3159720.006568355, "lat": 28.546756287837916, "lon": 77.184860351814294 }, "geometry": { "type": "Point", "coordinates": [ 77.184860351814294, 28.546756287837916 ] } },
{ "type": "Feature", "properties": { "cell_id": 93, "area_m2": 2500.0, "centroid_x": 713755.28044849285, "centroid_y": 3159770.006568355, "lat": 28.547207287141145, "lon": 77.184869663997219 }, "geometry": { "type": "Point", "coordinates": [ 77.184869663997219, 28.547207287141145 ] } },
{ "type": "Feature", "properties": { "cell_id": 94, "area_m2": 2500.0, "centroid_x": 713755.28044849285, "centroid_y": 3159820.006568355, "lat": 28.547658286411618, "lon": 77.184878976394231 }, "geometry": { "type": "Point", "coordinates": [ 77.184878976394231, 28.547658286411618 ] } },
{ "type": "Feature", "properties": { "cell_id": 95, "area_m2": 2500.0, "centroid_x": 713755.28044849285, "centroid_y": 3159870.006568355, "lat": 28.548109285649332, "lon": 77.184888289005329 }, "geometry": { "type": "Point", "coordinates": [ 77.184888289005329, 28.548109285649332 ] } },
{ "type": "Feature", "properties": { "cell_id": 96, "area_m2": 2500.0, "centroid_x": 713755.28044849285, "centroid_y": 3159920.006568355, "lat": 28.548560284854283, "lon": 77.1848976018305 }, "geometry": { "type": "Point", "coordinates": [ 77.1848976018305, 28.548560284854283 ] } },
{ "type": "Feature", "properties": { "cell_id": 97, "area_m2": 2500.0, "centroid_x": 713755.28044849285, "centroid_y": 3159970.006568355, "lat": 28.549011284026477, "lon": 77.184906914869785 }, "geometry": { "type": "Point", "coordinates": [ 77.184906914869785, 28.549011284026477 ] } },
{ "type": "Feature", "properties": { "cell_id": 98, "area_m2": 2500.0, "centroid_x": 713755.28044849285, "centroid_y": 3160020.006568355, "lat": 28.549462283165909, "lon": 77.184916228123157 }, "geometry": { "type": "Point", "coordinates": [ 77.184916228123157, 28.549462283165909 ] } },
{ "type": "Feature", "properties": { "cell_id": 99, "area_m2": 2332.2488369173561, "centroid_x": 713754.1491923423, "centroid_y": 3160068.497576423, "lat": 28.549899857252083, "lon": 77.184913704145998 }, "geometry": { "type": "Point", "coordinates": [ 77.184913704145998, 28.549899857252083 ] } },
{ "type": "Feature", "properties": { "cell_id": 100, "area_m2": 2484.9089254128967, "centroid_x": 713805.41587395791, "centroid_y": 3159470.1508544702, "lat": 28.544494347300709, "lon": 77.185325953917356 }, "geometry": { "type": "Point", "coordinates": [ 77.185325953917356, 28.544494347300709 ] } },
{ "type": "Feature", "properties": { "cell_id": 101, "area_m2": 2500.0, "centroid_x": 713805.28044849285, "centroid_y": 3159520.006568355, "lat": 28.544944067429348, "lon": 77.185333856957499 }, "geometry": { "type": "Point", "coordinates": [ 77.185333856957499, 28.544944067429348 ] } },
{ "type": "Feature", "properties": { "cell_id": 102, "area_m2": 2500.0, "centroid_x": 713805.28044849285, "centroid_y": 3159570.006568355, "lat": 28.545395066710146, "lon": 77.185343170456633 }, "geometry": { "type": "Point", "coordinates": [ 77.185343170456633, 28.545395066710146 ] } },
{ "type": "Feature", "properties": { "cell_id": 103, "area_m2": 2500.0, "centroid_x": 713805.28044849285, "centroid_y": 3159620.006568355, "lat": 28.545846065958187, "lon": 77.185352484169911 }, "geometry": { "type": "Point", "coordinates": [ 77.185352484169911, 28.545846065958187 ] } },
{ "type": "Feature", "properties": { "cell_id": 104, "area_m2": 2500.0, "centroid_x": 713805.28044849285, "centroid_y": 3159670.006568355, "lat": 28.546297065173469, "lon": 77.18536179809729 }, "geometry": { "type": "Point", "coordinates": [ 77.18536179809729, 28.546297065173469 ] } },
{ "type": "Feature", "properties": { "cell_id": 105, "area_m2": 2500.0, "centroid_x": 713805.28044849285, "centroid_y": 3159720.006568355, "lat": 28.546748064355992, "lon": 77.185371112238812 }, "geometry": { "type": "Point", "coordinates": [ 77.185371112238812, 28.546748064355992 ] } },
{ "type": "Feature", "properties": { "cell_id": 106, "area_m2": 2500.0, "centroid_x": 713805.28044849285, "centroid_y": 3159770.006568355, "lat": 28.547199063505754, "lon": 77.185380426594449 }, "geometry": { "type": "Point", "coordinates": [ 77.185380426594449, 28.547199063505754 ] } },
{ "type": "Feature", "properties": { "cell_id": 107, "area_m2": 2500.0, "centroid_x": 713805.28044849285, "centroid_y": 3159820.006568355, "lat": 28.547650062622754, "lon": 77.185389741164215 }, "geometry": { "type": "Point", "coordinates": [ 77.185389741164215, 28.547650062622754 ] } },
{ "type": "Feature", "properties": { "cell_id": 108, "area_m2": 2500.0, "centroid_x": 713805.28044849285, "centroid_y": 3159870.006568355, "lat": 28.548101061706998, "lon": 77.18539905594811 }, "geometry": { "type": "Point", "coordinates": [ 77.18539905594811, 28.548101061706998 ] } },
{ "type": "Feature", "properties": { "cell_id": 109, "area_m2": 2500.0, "centroid_x": 713805.28044849285, "centroid_y": 3159920.006568355, "lat": 28.548552060758464, "lon": 77.185408370946163 }, "geometry": { "type": "Point", "coordinates": [ 77.185408370946163, 28.548552060758464 ] } },
{ "type": "Feature", "properties": { "cell_id": 110, "area_m2": 2500.0, "centroid_x": 713805.28044849285, "centroid_y": 3159970.006568355, "lat": 28.549003059777178, "lon": 77.185417686158345 }, "geometry": { "type": "Point", "coordinates": [ 77.185417686158345, 28.549003059777178 ] } },
{ "type": "Feature", "properties": { "cell_id": 111, "area_m2": 2500.0, "centroid_x": 713805.28044849285, "centroid_y": 3160020.006568355, "lat": 28.549454058763128, "lon": 77.185427001584671 }, "geometry": { "type": "Point", "coordinates": [ 77.185427001584671, 28.549454058763128 ] } },
{ "type": "Feature", "properties": { "cell_id": 112, "area_m2": 1354.925641475711, "centroid_x": 713801.94688582968, "centroid_y": 3160059.2785512139, "lat": 28.549808839628067, "lon": 77.18540026442615 }, "geometry": { "type": "Point", "coordinates": [ 77.18540026442615, 28.549808839628067 ] } },
{ "type": "Feature", "properties": { "cell_id": 113, "area_m2": 1749.5861880685009, "centroid_x": 713850.10701957752, "centroid_y": 3159474.8092420255, "lat": 28.544529014601192, "lon": 77.185783341272284 }, "geometry": { "type": "Point", "coordinates": [ 77.185783341272284, 28.544529014601192 ] } },
{ "type": "Feature", "properties": { "cell_id": 114, "area_m2": 2500.0, "centroid_x": 713855.28044849285, "centroid_y": 3159520.006568355, "lat": 28.544935842642335, "lon": 77.185844608477566 }, "geometry": { "type": "Point", "coordinates": [ 77.185844608477566, 28.544935842642335 ] } },
{ "type": "Feature", "properties": { "cell_id": 115, "area_m2": 2500.0, "centroid_x": 713855.28044849285, "centroid_y": 3159570.006568355, "lat": 28.545386841769634, "lon": 77.185853924149214 }, "geometry": { "type": "Point", "coordinates": [ 77.185853924149214, 28.545386841769634 ] } },
{ "type": "Feature", "properties": { "cell_id": 116, "area_m2": 2500.0, "centroid_x": 713855.28044849285, "centroid_y": 3159620.006568355, "lat": 28.54583784086417, "lon": 77.185863240035033 }, "geometry": { "type": "Point", "coordinates": [ 77.185863240035033, 28.54583784086417 ] } },
{ "type": "Feature", "properties": { "cell_id": 117, "area_m2": 2500.0, "centroid_x": 713855.28044849285, "centroid_y": 3159670.006568355, "lat": 28.546288839925943, "lon": 77.185872556135038 }, "geometry": { "type": "Point", "coordinates": [ 77.185872556135038, 28.546288839925943 ] } },
{ "type": "Feature", "properties": { "cell_id": 118, "area_m2": 2500.0, "centroid_x": 713855.28044849285, "centroid_y": 3159720.006568355, "lat": 28.546739838954956, "lon": 77.185881872449201 }, "geometry": { "type": "Point", "coordinates": [ 77.185881872449201, 28.546739838954956 ] } },
{ "type": "Feature", "properties": { "cell_id": 119, "area_m2": 2500.0, "centroid_x": 713855.28044849285, "centroid_y": 3159770.006568355, "lat": 28.547190837951209, "lon": 77.185891188977536 }, "geometry": { "type": "Point", "coordinates": [ 77.185891188977536, 28.547190837951209 ] } },
{ "type": "Feature", "properties": { "cell_id": 120, "area_m2": 2500.0, "centroid_x": 713855.28044849285, "centroid_y": 3159820.006568355, "lat": 28.547641836914703, "lon": 77.18590050572007 }, "geometry": { "type": "Point", "coordinates": [ 77.18590050572007, 28.547641836914703 ] } },
{ "type": "Feature", "properties": { "cell_id": 121, "area_m2": 2500.0, "centroid_x": 713855.28044849285, "centroid_y": 3159870.006568355, "lat": 28.548092835845424, "lon": 77.185909822676763 }, "geometry": { "type": "Point", "coordinates": [ 77.185909822676763, 28.548092835845424 ] } },
{ "type": "Feature", "properties": { "cell_id": 122, "area_m2": 2500.0, "centroid_x": 713855.28044849285, "centroid_y": 3159920.006568355, "lat": 28.548543834743388, "lon": 77.18591913984767 }, "geometry": { "type": "Point", "coordinates": [ 77.18591913984767, 28.548543834743388 ] } },
{ "type": "Feature", "properties": { "cell_id": 123, "area_m2": 2500.0, "centroid_x": 713855.28044849285, "centroid_y": 3159970.006568355, "lat": 28.548994833608589, "lon": 77.185928457232748 }, "geometry": { "type": "Point", "coordinates": [ 77.185928457232748, 28.548994833608589 ] } },
{ "type": "Feature", "properties": { "cell_id": 124, "area_m2": 2466.1012201660574, "centroid_x": 713854.99409528472, "centroid_y": 3160019.6877640109, "lat": 28.54944300395152, "lon": 77.185934790191055 }, "geometry": { "type": "Point", "coordinates": [ 77.185934790191055, 28.54944300395152 ] } },
{ "type": "Feature", "properties": { "cell_id": 125, "area_m2": 1735.5239946627989, "centroid_x": 713907.9763089061, "centroid_y": 3159477.0458946088, "lat": 28.544539667906328, "lon": 77.186374892115097 }, "geometry": { "type": "Point", "coordinates": [ 77.186374892115097, 28.544539667906328 ] } },
{ "type": "Feature", "properties": { "cell_id": 126, "area_m2": 2500.0, "centroid_x": 713905.28044849285, "centroid_y": 3159520.006568355, "lat": 28.544927615936352, "lon": 77.186355359783462 }, "geometry": { "type": "Point", "coordinates": [ 77.186355359783462, 28.544927615936352 ] } },
{ "type": "Feature", "properties": { "cell_id": 127, "area_m2": 2500.0, "centroid_x": 713905.28044849285, "centroid_y": 3159570.006568355, "lat": 28.54537861491011, "lon": 77.186364677627623 }, "geometry": { "type": "Point", "coordinates": [ 77.186364677627623, 28.54537861491011 ] } },
{ "type": "Feature", "properties": { "cell_id": 128, "area_m2": 2500.0, "centroid_x": 713905.28044849285, "centroid_y": 3159620.006568355, "lat": 28.545829613851108, "lon": 77.186373995685997 }, "geometry": { "type": "Point", "coordinates": [ 77.186373995685997, 28.545829613851108 ] } },
{ "type": "Feature", "properties": { "cell_id": 129, "area_m2": 2500.0, "centroid_x": 713905.28044849285, "centroid_y": 3159670.006568355, "lat": 28.54628061275934, "lon": 77.186383313958586 }, "geometry": { "type": "Point", "coordinates": [ 77.186383313958586, 28.54628061275934 ] } },
{ "type": "Feature", "properties": { "cell_id": 130, "area_m2": 2500.0, "centroid_x": 713905.28044849285, "centroid_y": 3159720.006568355, "lat": 28.546731611634808, "lon": 77.186392632445404 }, "geometry": { "type": "Point", "coordinates": [ 77.186392632445404, 28.546731611634808 ] } },
{ "type": "Feature", "properties": { "cell_id": 131, "area_m2": 2500.0, "centroid_x": 713905.28044849285, "centroid_y": 3159770.006568355, "lat": 28.547182610477513, "lon": 77.186401951146451 }, "geometry": { "type": "Point", "coordinates": [ 77.186401951146451, 28.547182610477513 ] } },
{ "type": "Feature", "properties": { "cell_id": 132, "area_m2": 2500.0, "centroid_x": 713905.28044849285, "centroid_y": 3159820.006568355, "lat": 28.547633609287455, "lon": 77.186411270061726 }, "geometry": { "type": "Point", "coordinates": [ 77.186411270061726, 28.547633609287455 ] } },
{ "type": "Feature", "properties": { "cell_id": 133, "area_m2": 2500.0, "centroid_x": 713905.28044849285, "centroid_y": 3159870.006568355, "lat": 28.548084608064634, "lon": 77.186420589191229 }, "geometry": { "type": "Point", "coordinates": [ 77.186420589191229, 28.548084608064634 ] } },
{ "type": "Feature", "properties": { "cell_id": 134, "area_m2": 2500.0, "centroid_x": 713905.28044849285, "centroid_y": 3159920.006568355, "lat": 28.54853560680905, "lon": 77.18642990853499 }, "geometry": { "type": "Point", "coordinates": [ 77.18642990853499, 28.54853560680905 ] } },
{ "type": "Feature", "properties": { "cell_id": 135, "area_m2": 2500.0, "centroid_x": 713905.28044849285, "centroid_y": 3159970.006568355, "lat": 28.548986605520696, "lon": 77.186439228092965 }, "geometry": { "type": "Point", "coordinates": [ 77.186439228092965, 28.548986605520696 ] } },
{ "type": "Feature", "properties": { "cell_id": 136, "area_m2": 1686.8954672478139, "centroid_x": 713902.60290882445, "centroid_y": 3160012.4560217075, "lat": 28.549369939146683, "lon": 77.186419788185816 }, "geometry": { "type": "Point", "coordinates": [ 77.186419788185816, 28.549369939146683 ] } },
{ "type": "Feature", "properties": { "cell_id": 137, "area_m2": 2481.645433864785, "centroid_x": 713955.44306370849, "centroid_y": 3159470.18146072, "lat": 28.54446993921901, "lon": 77.186858484782221 }, "geometry": { "type": "Point", "coordinates": [ 77.186858484782221, 28.54446993921901 ] } },
{ "type": "Feature", "properties": { "cell_id": 138, "area_m2": 2500.0, "centroid_x": 713955.28044849285, "centroid_y": 3159520.006568355, "lat": 28.544919387311399, "lon": 77.186866110875144 }, "geometry": { "type": "Point", "coordinates": [ 77.186866110875144, 28.544919387311399 ] } },
{ "type": "Feature", "properties": { "cell_id": 139, "area_m2": 2500.0, "centroid_x": 713955.28044849285, "centroid_y": 3159570.006568355, "lat": 28.545370386131584, "lon": 77.186875430891803 }, "geometry": { "type": "Point", "coordinates": [ 77.186875430891803, 28.545370386131584 ] } },
{ "type": "Feature", "properties": { "cell_id": 140, "area_m2": 2500.0, "centroid_x": 713955.28044849285, "centroid_y": 3159620.006568355, "lat": 28.545821384919002, "lon": 77.186884751122733 }, "geometry": { "type": "Point", "coordinates": [ 77.186884751122733, 28.545821384919002 ] } },
{ "type": "Feature", "properties": { "cell_id": 141, "area_m2": 1801.108270814635, "centroid_x": 713950.73487584828, "centroid_y": 3159672.8541445248, "lat": 28.546298816937028, "lon": 77.186848168669187 }, "geometry": { "type": "Point", "coordinates": [ 77.186848168669187, 28.546298816937028 ] } },
{ "type": "Feature", "properties": { "cell_id": 142, "area_m2": 2500.0, "centroid_x": 713955.28044849285, "centroid_y": 3159720.006568355, "lat": 28.546723382395541, "lon": 77.186903392227393 }, "geometry": { "type": "Point", "coordinates": [ 77.186903392227393, 28.546723382395541 ] } },
{ "type": "Feature", "properties": { "cell_id": 143, "area_m2": 2500.0, "centroid_x": 713955.28044849285, "centroid_y": 3159770.006568355, "lat": 28.54717438108467, "lon": 77.186912713101137 }, "geometry": { "type": "Point", "coordinates": [ 77.186912713101137, 28.54717438108467 ] } },
{ "type": "Feature", "properties": { "cell_id": 144, "area_m2": 2500.0, "centroid_x": 713955.28044849285, "centroid_y": 3159820.006568355, "lat": 28.547625379741028, "lon": 77.186922034189152 }, "geometry": { "type": "Point", "coordinates": [ 77.186922034189152, 28.547625379741028 ] } },
{ "type": "Feature", "properties": { "cell_id": 145, "area_m2": 2500.0, "centroid_x": 713955.28044849285, "centroid_y": 3159870.006568355, "lat": 28.54807637836463, "lon": 77.186931355491453 }, "geometry": { "type": "Point", "coordinates": [ 77.186931355491453, 28.54807637836463 ] } },
{ "type": "Feature", "properties": { "cell_id": 146, "area_m2": 2500.0, "centroid_x": 713955.28044849285, "centroid_y": 3159920.006568355, "lat": 28.548527376955455, "lon": 77.186940677008053 }, "geometry": { "type": "Point", "coordinates": [ 77.186940677008053, 28.548527376955455 ] } },
{ "type": "Feature", "properties": { "cell_id": 147, "area_m2": 2500.0, "centroid_x": 713955.28044849285, "centroid_y": 3159970.006568355, "lat": 28.548978375513521, "lon": 77.186949998738939 }, "geometry": { "type": "Point", "coordinates": [ 77.186949998738939, 28.548978375513521 ] } },
{ "type": "Feature", "properties": { "cell_id": 148, "area_m2": 1481.3146028202027, "centroid_x": 714008.4389473187, "centroid_y": 3159429.4840896274, "lat": 28.544094126369973, "lon": 77.187392248809701 }, "geometry": { "type": "Point", "coordinates": [ 77.187392248809701, 28.544094126369973 ] } },
{ "type": "Feature", "properties": { "cell_id": 149, "area_m2": 2500.0, "centroid_x": 714005.28044849285, "centroid_y": 3159470.006568355, "lat": 28.544460158068148, "lon": 77.187367539777739 }, "geometry": { "type": "Point", "coordinates": [ 77.187367539777739, 28.544460158068148 ] } },
{ "type": "Feature", "properties": { "cell_id": 150, "area_m2": 2500.0, "centroid_x": 714005.28044849285, "centroid_y": 3159520.006568355, "lat": 28.54491115676748, "lon": 77.187376861752583 }, "geometry": { "type": "Point", "coordinates": [ 77.187376861752583, 28.54491115676748 ] } },
{ "type": "Feature", "properties": { "cell_id": 151, "area_m2": 2500.0, "centroid_x": 714005.28044849285, "centroid_y": 3159570.006568355, "lat": 28.545362155434049, "lon": 77.18738618394174 }, "geometry": { "type": "Point", "coordinates": [ 77.18738618394174, 28.545362155434049 ] } },
{ "type": "Feature", "properties": { "cell_id": 152, "area_m2": 1972.5331216529362, "centroid_x": 714003.00269001781, "centroid_y": 3159615.2231276361, "lat": 28.54577038256356, "lon": 77.187371346946037 }, "geometry": { "type": "Point", "coordinates": [ 77.187371346946037, 28.54577038256356 ] } },
{ "type": "Feature", "properties": { "cell_id": 153, "area_m2": 2433.3754604676369, "centroid_x": 714004.75328567182, "centroid_y": 3159720.6205084743, "lat": 28.546720775752505, "lon": 77.187408881201392 }, "geometry": { "type": "Point", "coordinates": [ 77.187408881201392, 28.546720775752505 ] } },
{ "type": "Feature", "properties": { "cell_id": 154, "area_m2": 2500.0, "centroid_x": 714005.28044849285, "centroid_y": 3159770.006568355, "lat": 28.547166149772682, "lon": 77.187423474841538 }, "geometry": { "type": "Point", "coordinates": [ 77.187423474841538, 28.547166149772682 ] } },
{ "type": "Feature", "properties": { "cell_id": 155, "area_m2": 2500.0, "centroid_x": 714005.28044849285, "centroid_y": 3159820.006568355, "lat": 28.547617148275428, "lon": 77.187432798102293 }, "geometry": { "type": "Point", "coordinates": [ 77.187432798102293, 28.547617148275428 ] } },
{ "type": "Feature", "properties": { "cell_id": 156, "area_m2": 2500.0, "centroid_x": 714005.28044849285, "centroid_y": 3159870.006568355, "lat": 28.5480681467454, "lon": 77.187442121577391 }, "geometry": { "type": "Point", "coordinates": [ 77.187442121577391, 28.5480681467454 ] } },
{ "type": "Feature", "properties": { "cell_id": 157, "area_m2": 2500.0, "centroid_x": 714005.28044849285, "centroid_y": 3159920.006568355, "lat": 28.548519145182617, "lon": 77.187451445266831 }, "geometry": { "type": "Point", "coordinates": [ 77.187451445266831, 28.548519145182617 ] } },
{ "type": "Feature", "properties": { "cell_id": 158, "area_m2": 2017.1561368163586, "centroid_x": 714003.06168110564, "centroid_y": 3159965.6550740041, "lat": 28.548931258582872, "lon": 77.187437292101208 }, "geometry": { "type": "Point", "coordinates": [ 77.187437292101208, 28.548931258582872 ] } },
{ "type": "Feature", "properties": { "cell_id": 159, "area_m2": 2406.9074584147334, "centroid_x": 714055.98489298695, "centroid_y": 3159420.8556014337, "lat": 28.54400846943928, "lon": 77.187876318507875 }, "geometry": { "type": "Point", "coordinates": [ 77.187876318507875, 28.54400846943928 ] } },
{ "type": "Feature", "properties": { "cell_id": 160, "area_m2": 2500.0, "centroid_x": 714055.28044849285, "centroid_y": 3159470.006568355, "lat": 28.544451925758914, "lon": 77.187878288268422 }, "geometry": { "type": "Point", "coordinates": [ 77.187878288268422, 28.544451925758914 ] } },
{ "type": "Feature", "properties": { "cell_id": 161, "area_m2": 2500.0, "centroid_x": 714055.28044849285, "centroid_y": 3159520.006568355, "lat": 28.544902924304601, "lon": 77.187887612415707 }, "geometry": { "type": "Point", "coordinates": [ 77.187887612415707, 28.544902924304601 ] } },
{ "type": "Feature", "properties": { "cell_id": 162, "area_m2": 2500.0, "centroid_x": 714055.28044849285, "centroid_y": 3159570.006568355, "lat": 28.545353922817519, "lon": 77.187896936777335 }, "geometry": { "type": "Point", "coordinates": [ 77.187896936777335, 28.545353922817519 ] } },
{ "type": "Feature", "properties": { "cell_id": 163, "area_m2": 893.89607587363571, "centroid_x": 714050.25235072151, "centroid_y": 3159605.0302941934, "lat": 28.545670663749039, "lon": 77.187852105935505 }, "geometry": { "type": "Point", "coordinates": [ 77.187852105935505, 28.545670663749039 ] } },
{ "type": "Feature", "properties": { "cell_id": 164, "area_m2": 1552.9848424135707, "centroid_x": 714052.27268720465, "centroid_y": 3159728.8023546785, "lat": 28.546786751188559, "lon": 77.187895826724485 }, "geometry": { "type": "Point", "coordinates": [ 77.187895826724485, 28.546786751188559 ] } },
{ "type": "Feature", "properties": { "cell_id": 165, "area_m2": 2500.0, "centroid_x": 714055.28044849285, "centroid_y": 3159770.006568355, "lat": 28.547157916541558, "lon": 77.187934236367596 }, "geometry": { "type": "Point", "coordinates": [ 77.187934236367596, 28.547157916541558 ] } },
{ "type": "Feature", "properties": { "cell_id": 166, "area_m2": 2500.0, "centroid_x": 714055.28044849285, "centroid_y": 3159820.006568355, "lat": 28.547608914890642, "lon": 77.187943561801106 }, "geometry": { "type": "Point", "coordinates": [ 77.187943561801106, 28.547608914890642 ] } },
{ "type": "Feature", "properties": { "cell_id": 167, "area_m2": 2500.0, "centroid_x": 714055.28044849285, "centroid_y": 3159870.006568355, "lat": 28.548059913206966, "lon": 77.187952887448986 }, "geometry": { "type": "Point", "coordinates": [ 77.187952887448986, 28.548059913206966 ] } },
{ "type": "Feature", "properties": { "cell_id": 168, "area_m2": 2500.0, "centroid_x": 714055.28044849285, "centroid_y": 3159920.006568355, "lat": 28.548510911490514, "lon": 77.187962213311266 }, "geometry": { "type": "Point", "coordinates": [ 77.187962213311266, 28.548510911490514 ] } },
{ "type": "Feature", "properties": { "cell_id": 169, "area_m2": 934.85020591178909, "centroid_x": 714050.44894768007, "centroid_y": 3159955.4025543695, "lat": 28.54883097776554, "lon": 77.187919459738978 }, "geometry": { "type": "Point", "coordinates": [ 77.187919459738978, 28.54883097776554 ] } },
{ "type": "Feature", "properties": { "cell_id": 170, "area_m2": 1227.105210989248, "centroid_x": 714109.09326779447, "centroid_y": 3159381.8792368677, "lat": 28.54364815778456, "lon": 77.188411546510295 }, "geometry": { "type": "Point", "coordinates": [ 77.188411546510295, 28.54364815778456 ] } },
{ "type": "Feature", "properties": { "cell_id": 171, "area_m2": 2500.0, "centroid_x": 714105.28044849285, "centroid_y": 3159420.006568355, "lat": 28.543992693105977, "lon": 77.188379710439435 }, "geometry": { "type": "Point", "coordinates": [ 77.188379710439435, 28.543992693105977 ] } },
{ "type": "Feature", "properties": { "cell_id": 172, "area_m2": 2500.0, "centroid_x": 714105.28044849285, "centroid_y": 3159470.006568355, "lat": 28.544443691530752, "lon": 77.188389036544734 }, "geometry": { "type": "Point", "coordinates": [ 77.188389036544734, 28.544443691530752 ] } },
{ "type": "Feature", "properties": { "cell_id": 173, "area_m2": 2500.0, "centroid_x": 714105.28044849285, "centroid_y": 3159520.006568355, "lat": 28.544894689922756, "lon": 77.188398362864461 }, "geometry": { "type": "Point", "coordinates": [ 77.188398362864461, 28.544894689922756 ] } },
{ "type": "Feature", "properties": { "cell_id": 174, "area_m2": 2256.9276058947989, "centroid_x": 714103.79296620248, "centroid_y": 3159567.8340028324, "lat": 28.54532633681497, "lon": 77.188392089440327 }, "geometry": { "type": "Point", "coordinates": [ 77.188392089440327, 28.54532633681497 ] } },
{ "type": "Feature", "properties": { "cell_id": 175, "area_m2": 2492.6263755822638, "centroid_x": 714105.21214892296, "centroid_y": 3159770.0779870185, "lat": 28.547150336835529, "lon": 77.188444313307031 }, "geometry": { "type": "Point", "coordinates": [ 77.188444313307031, 28.547150336835529 ] } },
{ "type": "Feature", "properties": { "cell_id": 176, "area_m2": 2500.0, "centroid_x": 714105.28044849285, "centroid_y": 3159820.006568355, "lat": 28.547600679586683, "lon": 77.188454325285534 }, "geometry": { "type": "Point", "coordinates": [ 77.188454325285534, 28.547600679586683 ] } },
{ "type": "Feature", "properties": { "cell_id": 177, "area_m2": 2500.0, "centroid_x": 714105.28044849285, "centroid_y": 3159870.006568355, "lat": 28.548051677749317, "lon": 77.188463653106197 }, "geometry": { "type": "Point", "coordinates": [ 77.188463653106197, 28.548051677749317 ] } },
{ "type": "Feature", "properties": { "cell_id": 178, "area_m2": 2279.652826601769, "centroid_x": 714103.89115429367, "centroid_y": 3159918.0354962628, "lat": 28.548485125742747, "lon": 77.188458421282277 }, "geometry": { "type": "Point", "coordinates": [ 77.188458421282277, 28.548485125742747 ] } },
{ "type": "Feature", "properties": { "cell_id": 179, "area_m2": 2274.6196698541016, "centroid_x": 714156.7112620332, "centroid_y": 3159372.0137318866, "lat": 28.543551327648956, "lon": 77.18889611830042 }, "geometry": { "type": "Point", "coordinates": [ 77.18889611830042, 28.543551327648956 ] } },
{ "type": "Feature", "properties": { "cell_id": 180, "area_m2": 2500.0, "centroid_x": 714155.28044849285, "centroid_y": 3159420.006568355, "lat": 28.543984457112614, "lon": 77.188890456328963 }, "geometry": { "type": "Point", "coordinates": [ 77.188890456328963, 28.543984457112614 ] } },
{ "type": "Feature", "properties": { "cell_id": 181, "area_m2": 2500.0, "centroid_x": 714155.28044849285, "centroid_y": 3159470.006568355, "lat": 28.544435455383667, "lon": 77.188899784606662 }, "geometry": { "type": "Point", "coordinates": [ 77.188899784606662, 28.544435455383667 ] } },
{ "type": "Feature", "properties": { "cell_id": 182, "area_m2": 2500.0, "centroid_x": 714155.28044849285, "centroid_y": 3159520.006568355, "lat": 28.544886453621956, "lon": 77.188909113098816 }, "geometry": { "type": "Point", "coordinates": [ 77.188909113098816, 28.544886453621956 ] } },
{ "type": "Feature", "properties": { "cell_id": 183, "area_m2": 1236.4895798265934, "centroid_x": 714151.64548307122, "centroid_y": 3159558.1556739551, "lat": 28.545231156034859, "lon": 77.188879099413597 }, "geometry": { "type": "Point", "coordinates": [ 77.188879099413597, 28.545231156034859 ] } },
{ "type": "Feature", "properties": { "cell_id": 184, "area_m2": 1810.9011512016878, "centroid_x": 714152.70106546732, "centroid_y": 3159776.3192375824, "lat": 28.547198809331963, "lon": 77.188930587701904 }, "geometry": { "type": "Point", "coordinates": [ 77.188930587701904, 28.547198809331963 ] } },
{ "type": "Feature", "properties": { "cell_id": 185, "area_m2": 2500.0, "centroid_x": 714155.28044849285, "centroid_y": 3159820.006568355, "lat": 28.547592442363552, "lon": 77.18896508855552 }, "geometry": { "type": "Point", "coordinates": [ 77.18896508855552, 28.547592442363552 ] } },
{ "type": "Feature", "properties": { "cell_id": 186, "area_m2": 2500.0, "centroid_x": 714155.28044849285, "centroid_y": 3159870.006568355, "lat": 28.548043440372464, "lon": 77.18897441854898 }, "geometry": { "type": "Point", "coordinates": [ 77.18897441854898, 28.548043440372464 ] } },
{ "type": "Feature", "properties": { "cell_id": 187, "area_m2": 1266.8200316955335, "centroid_x": 714151.71504108154, "centroid_y": 3159908.4477597568, "lat": 28.548390765829886, "lon": 77.188945169966175 }, "geometry": { "type": "Point", "coordinates": [ 77.188945169966175, 28.548390765829886 ] } },
{ "type": "Feature", "properties": { "cell_id": 188, "area_m2": 972.89581914665177, "centroid_x": 714210.08952500613, "centroid_y": 3159334.1975922775, "lat": 28.543201432980037, "lon": 77.18943431370738 }, "geometry": { "type": "Point", "coordinates": [ 77.18943431370738, 28.543201432980037 ] } },
{ "type": "Feature", "properties": { "cell_id": 189, "area_m2": 2500.0, "centroid_x": 714205.28044849285, "centroid_y": 3159370.006568355, "lat": 28.543525221050292, "lon": 77.189391871768478 }, "geometry": { "type": "Point", "coordinates": [ 77.189391871768478, 28.543525221050292 ] } },
{ "type": "Feature", "properties": { "cell_id": 190, "area_m2": 2500.0, "centroid_x": 714205.28044849285, "centroid_y": 3159420.006568355, "lat": 28.543976219200363, "lon": 77.189401202004049 }, "geometry": { "type": "Point", "coordinates": [ 77.189401202004049, 28.543976219200363 ] } },
{ "type": "Feature", "properties": { "cell_id": 191, "area_m2": 2500.0, "centroid_x": 714205.28044849285, "centroid_y": 3159470.006568355, "lat": 28.544427217317672, "lon": 77.189410532454119 }, "geometry": { "type": "Point", "coordinates": [ 77.189410532454119, 28.544427217317672 ] } },
{ "type": "Feature", "properties": { "cell_id": 192, "area_m2": 2432.5152341572052, "centroid_x": 714204.75043442065, "centroid_y": 3159519.383569784, "lat": 28.544872683316655, "lon": 77.189414332765011 }, "geometry": { "type": "Point", "coordinates": [ 77.189414332765011, 28.544872683316655 ] } },
{ "type": "Feature", "properties": { "cell_id": 193, "area_m2": 689.8593055899255, "centroid_x": 714198.50949149881, "centroid_y": 3159786.5898700743, "lat": 28.547283901853969, "lon": 77.189400447842502 }, "geometry": { "type": "Point", "coordinates": [ 77.189400447842502, 28.547283901853969 ] } },
{ "type": "Feature", "properties": { "cell_id": 194, "area_m2": 2500.0, "centroid_x": 714205.28044849285, "centroid_y": 3159820.006568355, "lat": 28.547584203221259, "lon": 77.189475851611022 }, "geometry": { "type": "Point", "coordinates": [ 77.189475851611022, 28.547584203221259 ] } },
{ "type": "Feature", "properties": { "cell_id": 195, "area_m2": 2440.4867567634205, "centroid_x": 714204.80547922733, "centroid_y": 3159869.4553194437, "lat": 28.548030307112306, "lon": 77.189480228934698 }, "geometry": { "type": "Point", "coordinates": [ 77.189480228934698, 28.548030307112306 ] } },
{ "type": "Feature", "properties": { "cell_id": 196, "area_m2": 2084.7820681718977, "centroid_x": 714257.40498581645, "centroid_y": 3159323.7035473837, "lat": 28.543098979803638, "lon": 77.189915674647835 }, "geometry": { "type": "Point", "coordinates": [ 77.189915674647835, 28.543098979803638 ] } },
{ "type": "Feature", "properties": { "cell_id": 197, "area_m2": 2500.0, "centroid_x": 714255.28044849285, "centroid_y": 3159370.006568355, "lat": 28.543516981372953, "lon": 77.189902615056724 }, "geometry": { "type": "Point", "coordinates": [ 77.189902615056724, 28.543516981372953 ] } },
{ "type": "Feature", "properties": { "cell_id": 198, "area_m2": 2500.0, "centroid_x": 714255.28044849285, "centroid_y": 3159420.006568355, "lat": 28.543967979369235, "lon": 77.189911947464623 }, "geometry": { "type": "Point", "coordinates": [ 77.189911947464623, 28.543967979369235 ] } },
{ "type": "Feature", "properties": { "cell_id": 199, "area_m2": 2500.0, "centroid_x": 714255.28044849285, "centroid_y": 3159470.006568355, "lat": 28.544418977332757, "lon": 77.189921280087063 }, "geometry": { "type": "Point", "coordinates": [ 77.189921280087063, 28.544418977332757 ] } },
{ "type": "Feature", "properties": { "cell_id": 200, "area_m2": 2202.1829890604477, "centroid_x": 714256.14720065915, "centroid_y": 3159517.1120277597, "lat": 28.544843723768086, "lon": 77.189938926498641 }, "geometry": { "type": "Point", "coordinates": [ 77.189938926498641, 28.544843723768086 ] } },
{ "type": "Feature", "properties": { "cell_id": 201, "area_m2": 2061.3563570308124, "centroid_x": 714253.09798888164, "centroid_y": 3159823.9195558317, "lat": 28.547611616884378, "lon": 77.189965050558925 }, "geometry": { "type": "Point", "coordinates": [ 77.189965050558925, 28.547611616884378 ] } },
{ "type": "Feature", "properties": { "cell_id": 202, "area_m2": 1598.789857479278, "centroid_x": 714252.45535580884, "centroid_y": 3159861.6069555483, "lat": 28.5479516614357, "lon": 77.189965521535612 }, "geometry": { "type": "Point", "coordinates": [ 77.189965521535612, 28.5479516614357 ] } },
{ "type": "Feature", "properties": { "cell_id": 203, "area_m2": 718.68642730405554, "centroid_x": 714311.79056230024, "centroid_y": 3159286.357668838, "lat": 28.542753157057106, "lon": 77.190464241484761 }, "geometry": { "type": "Point", "coordinates": [ 77.190464241484761, 28.542753157057106 ] } },
{ "type": "Feature", "properties": { "cell_id": 204, "area_m2": 2500.0, "centroid_x": 714305.28044849285, "centroid_y": 3159320.006568355, "lat": 28.543057741901535, "lon": 77.190404023764813 }, "geometry": { "type": "Point", "coordinates": [ 77.190404023764813, 28.543057741901535 ] } },
{ "type": "Feature", "properties": { "cell_id": 205, "area_m2": 2500.0, "centroid_x": 714305.28044849285, "centroid_y": 3159370.006568355, "lat": 28.543508739776769, "lon": 77.190413358130428 }, "geometry": { "type": "Point", "coordinates": [ 77.190413358130428, 28.543508739776769 ] } },
{ "type": "Feature", "properties": { "cell_id": 206, "area_m2": 2500.0, "centroid_x": 714305.28044849285, "centroid_y": 3159420.006568355, "lat": 28.543959737619236, "lon": 77.190422692710641 }, "geometry": { "type": "Point", "coordinates": [ 77.190422692710641, 28.543959737619236 ] } },
{ "type": "Feature", "properties": { "cell_id": 207, "area_m2": 2500.0, "centroid_x": 714305.28044849285, "centroid_y": 3159470.006568355, "lat": 28.544410735428926, "lon": 77.190432027505466 }, "geometry": { "type": "Point", "coordinates": [ 77.190432027505466, 28.544410735428926 ] } },
{ "type": "Feature", "properties": { "cell_id": 208, "area_m2": 2497.6270427259733, "centroid_x": 714305.30268517358, "centroid_y": 3159519.9831303344, "lat": 28.544861518130009, "lon": 77.190441585286422 }, "geometry": { "type": "Point", "coordinates": [ 77.190441585286422, 28.544861518130009 ] } },
{ "type": "Feature", "properties": { "cell_id": 209, "area_m2": 947.43354167813288, "centroid_x": 714300.34140414291, "centroid_y": 3159834.4200705974, "lat": 28.547698542604518, "lon": 77.190449614855439 }, "geometry": { "type": "Point", "coordinates": [ 77.190449614855439, 28.547698542604518 ] } },
{ "type": "Feature", "properties": { "cell_id": 210, "area_m2": 1841.5817313827574, "centroid_x": 714357.82105277549, "centroid_y": 3159276.0201845178, "lat": 28.542652324428911, "lon": 77.190932502715029 }, "geometry": { "type": "Point", "coordinates": [ 77.190932502715029, 28.542652324428911 ] } },
{ "type": "Feature", "properties": { "cell_id": 211, "area_m2": 2500.0, "centroid_x": 714355.28044849285, "centroid_y": 3159320.006568355, "lat": 28.54304949854037, "lon": 77.190914764451648 }, "geometry": { "type": "Point", "coordinates": [ 77.190914764451648, 28.54304949854037 ] } },
{ "type": "Feature", "properties": { "cell_id": 212, "area_m2": 2500.0, "centroid_x": 714355.28044849285, "centroid_y": 3159370.006568355, "lat": 28.543500496261753, "lon": 77.190924100989534 }, "geometry": { "type": "Point", "coordinates": [ 77.190924100989534, 28.543500496261753 ] } },
{ "type": "Feature", "properties": { "cell_id": 213, "area_m2": 2500.0, "centroid_x": 714355.28044849285, "centroid_y": 3159420.006568355, "lat": 28.54395149395036, "lon": 77.190933437742061 }, "geometry": { "type": "Point", "coordinates": [ 77.190933437742061, 28.54395149395036 ] } },
{ "type": "Feature", "properties": { "cell_id": 214, "area_m2": 2500.0, "centroid_x": 714355.28044849285, "centroid_y": 3159470.006568355, "lat": 28.544402491606192, "lon": 77.190942774709242 }, "geometry": { "type": "Point", "coordinates": [ 77.190942774709242, 28.544402491606192 ] } },
{ "type": "Feature", "properties": { "cell_id": 215, "area_m2": 2500.0, "centroid_x": 714355.28044849285, "centroid_y": 3159520.006568355, "lat": 28.544853489229254, "lon": 77.190952111891093 }, "geometry": { "type": "Point", "coordinates": [ 77.190952111891093, 28.544853489229254 ] } },
{ "type": "Feature", "properties": { "cell_id": 216, "area_m2": 727.65443496173248, "centroid_x": 714358.24753272638, "centroid_y": 3159552.5905992873, "lat": 28.545146906343891, "lon": 77.190988505672763 }, "geometry": { "type": "Point", "coordinates": [ 77.190988505672763, 28.545146906343891 ] } },
{ "type": "Feature", "properties": { "cell_id": 217, "area_m2": 2495.8129219856551, "centroid_x": 714405.31997489778, "centroid_y": 3159270.0474248333, "lat": 28.542590617664874, "lon": 77.19141657781195 }, "geometry": { "type": "Point", "coordinates": [ 77.19141657781195, 28.542590617664874 ] } },
{ "type": "Feature", "properties": { "cell_id": 218, "area_m2": 2500.0, "centroid_x": 714405.28044849285, "centroid_y": 3159320.006568355, "lat": 28.543041253260412, "lon": 77.191425504923842 }, "geometry": { "type": "Point", "coordinates": [ 77.191425504923842, 28.543041253260412 ] } },
{ "type": "Feature", "properties": { "cell_id": 219, "area_m2": 2500.0, "centroid_x": 714405.28044849285, "centroid_y": 3159370.006568355, "lat": 28.543492250827903, "lon": 77.191434843633985 }, "geometry": { "type": "Point", "coordinates": [ 77.191434843633985, 28.543492250827903 ] } },
{ "type": "Feature", "properties": { "cell_id": 220, "area_m2": 2500.0, "centroid_x": 714405.28044849285, "centroid_y": 3159420.006568355, "lat": 28.543943248362609, "lon": 77.191444182558826 }, "geometry": { "type": "Point", "coordinates": [ 77.191444182558826, 28.543943248362609 ] } },
{ "type": "Feature", "properties": { "cell_id": 221, "area_m2": 2500.0, "centroid_x": 714405.28044849285, "centroid_y": 3159470.006568355, "lat": 28.544394245864549, "lon": 77.191453521698378 }, "geometry": { "type": "Point", "coordinates": [ 77.191453521698378, 28.544394245864549 ] } },
{ "type": "Feature", "properties": { "cell_id": 222, "area_m2": 2500.0, "centroid_x": 714405.28044849285, "centroid_y": 3159520.006568355, "lat": 28.544845243333711, "lon": 77.191462861052642 }, "geometry": { "type": "Point", "coordinates": [ 77.191462861052642, 28.544845243333711 ] } },
{ "type": "Feature", "properties": { "cell_id": 223, "area_m2": 1245.817315322347, "centroid_x": 714407.01345699641, "centroid_y": 3159557.6443376443, "lat": 28.545184448243415, "lon": 77.191487594149123 }, "geometry": { "type": "Point", "coordinates": [ 77.191487594149123, 28.545184448243415 ] } },
{ "type": "Feature", "properties": { "cell_id": 224, "area_m2": 1587.3723395401612, "centroid_x": 714458.22791728587, "centroid_y": 3159228.4709051866, "lat": 28.542206872819488, "lon": 77.191949252838739 }, "geometry": { "type": "Point", "coordinates": [ 77.191949252838739, 28.542206872819488 ] } },
{ "type": "Feature", "properties": { "cell_id": 225, "area_m2": 2500.0, "centroid_x": 714455.28044849285, "centroid_y": 3159270.006568355, "lat": 28.542582008615316, "lon": 77.191926904513679 }, "geometry": { "type": "Point", "coordinates": [ 77.191926904513679, 28.542582008615316 ] } },
{ "type": "Feature", "properties": { "cell_id": 226, "area_m2": 2500.0, "centroid_x": 714455.28044849285, "centroid_y": 3159320.006568355, "lat": 28.543033006061652, "lon": 77.191936245181324 }, "geometry": { "type": "Point", "coordinates": [ 77.191936245181324, 28.543033006061652 ] } },
{ "type": "Feature", "properties": { "cell_id": 227, "area_m2": 2500.0, "centroid_x": 714455.28044849285, "centroid_y": 3159370.006568355, "lat": 28.543484003475207, "lon": 77.191945586063738 }, "geometry": { "type": "Point", "coordinates": [ 77.191945586063738, 28.543484003475207 ] } },
{ "type": "Feature", "properties": { "cell_id": 228, "area_m2": 2500.0, "centroid_x": 714455.28044849285, "centroid_y": 3159420.006568355, "lat": 28.543935000855992, "lon": 77.191954927160893 }, "geometry": { "type": "Point", "coordinates": [ 77.191954927160893, 28.543935000855992 ] } },
{ "type": "Feature", "properties": { "cell_id": 229, "area_m2": 2500.0, "centroid_x": 714455.28044849285, "centroid_y": 3159470.006568355, "lat": 28.544385998204, "lon": 77.191964268472816 }, "geometry": { "type": "Point", "coordinates": [ 77.191964268472816, 28.544385998204 ] } },
{ "type": "Feature", "properties": { "cell_id": 230, "area_m2": 2500.0, "centroid_x": 714455.28044849285, "centroid_y": 3159520.006568355, "lat": 28.544836995519237, "lon": 77.191973609999465 }, "geometry": { "type": "Point", "coordinates": [ 77.191973609999465, 28.544836995519237 ] } },
{ "type": "Feature", "properties": { "cell_id": 231, "area_m2": 1763.9801956829615, "centroid_x": 714456.50439193996, "centroid_y": 3159562.7732107248, "lat": 28.545222546386583, "lon": 77.191994102883797 }, "geometry": { "type": "Point", "coordinates": [ 77.191994102883797, 28.545222546386583 ] } },
{ "type": "Feature", "properties": { "cell_id": 232, "area_m2": 2152.758996611818, "centroid_x": 714503.94581545179, "centroid_y": 3159223.2092338721, "lat": 28.542151870407064, "lon": 77.192415265283074 }, "geometry": { "type": "Point", "coordinates": [ 77.192415265283074, 28.542151870407064 ] } },
{ "type": "Feature", "properties": { "cell_id": 233, "area_m2": 2500.0, "centroid_x": 714505.28044849285, "centroid_y": 3159270.006568355, "lat": 28.542573759651731, "lon": 77.19243764238422 }, "geometry": { "type": "Point", "coordinates": [ 77.19243764238422, 28.542573759651731 ] } },
{ "type": "Feature", "properties": { "cell_id": 234, "area_m2": 2500.0, "centroid_x": 714505.28044849285, "centroid_y": 3159320.006568355, "lat": 28.543024756944103, "lon": 77.19244698522408 }, "geometry": { "type": "Point", "coordinates": [ 77.19244698522408, 28.543024756944103 ] } },
{ "type": "Feature", "properties": { "cell_id": 235, "area_m2": 2500.0, "centroid_x": 714505.28044849285, "centroid_y": 3159370.006568355, "lat": 28.543475754203694, "lon": 77.192456328278752 }, "geometry": { "type": "Point", "coordinates": [ 77.192456328278752, 28.543475754203694 ] } },
{ "type": "Feature", "properties": { "cell_id": 236, "area_m2": 2500.0, "centroid_x": 714505.28044849285, "centroid_y": 3159420.006568355, "lat": 28.543926751430515, "lon": 77.19246567154822 }, "geometry": { "type": "Point", "coordinates": [ 77.19246567154822, 28.543926751430515 ] } },
{ "type": "Feature", "properties": { "cell_id": 237, "area_m2": 2500.0, "centroid_x": 714505.28044849285, "centroid_y": 3159470.006568355, "lat": 28.544377748624559, "lon": 77.192475015032485 }, "geometry": { "type": "Point", "coordinates": [ 77.192475015032485, 28.544377748624559 ] } },
{ "type": "Feature", "properties": { "cell_id": 238, "area_m2": 2500.0, "centroid_x": 714505.28044849285, "centroid_y": 3159520.006568355, "lat": 28.544828745785811, "lon": 77.192484358731548 }, "geometry": { "type": "Point", "coordinates": [ 77.192484358731548, 28.544828745785811 ] } },
{ "type": "Feature", "properties": { "cell_id": 239, "area_m2": 2280.5031855706238, "centroid_x": 714506.21015085862, "centroid_y": 3159567.9063692787, "lat": 28.545260645823067, "lon": 77.192502807082278 }, "geometry": { "type": "Point", "coordinates": [ 77.192502807082278, 28.545260645823067 ] } },
{ "type": "Feature", "properties": { "cell_id": 240, "area_m2": 1030.3772832616232, "centroid_x": 714550.27486891323, "centroid_y": 3159233.4635816882, "lat": 28.542236719184501, "lon": 77.192890419691835 }, "geometry": { "type": "Point", "coordinates": [ 77.192890419691835, 28.542236719184501 ] } },
{ "type": "Feature", "properties": { "cell_id": 241, "area_m2": 2500.0, "centroid_x": 714555.28044849285, "centroid_y": 3159270.006568355, "lat": 28.542565508769385, "lon": 77.192948380039979 }, "geometry": { "type": "Point", "coordinates": [ 77.192948380039979, 28.542565508769385 ] } },
{ "type": "Feature", "properties": { "cell_id": 242, "area_m2": 2500.0, "centroid_x": 714555.28044849285, "centroid_y": 3159320.006568355, "lat": 28.543016505907762, "lon": 77.19295772505204 }, "geometry": { "type": "Point", "coordinates": [ 77.19295772505204, 28.543016505907762 ] } },
{ "type": "Feature", "properties": { "cell_id": 243, "area_m2": 2500.0, "centroid_x": 714555.28044849285, "centroid_y": 3159370.006568355, "lat": 28.543467503013353, "lon": 77.192967070278954 }, "geometry": { "type": "Point", "coordinates": [ 77.192967070278954, 28.543467503013353 ] } },
{ "type": "Feature", "properties": { "cell_id": 244, "area_m2": 2500.0, "centroid_x": 714555.28044849285, "centroid_y": 3159420.006568355, "lat": 28.543918500086171, "lon": 77.192976415720736 }, "geometry": { "type": "Point", "coordinates": [ 77.192976415720736, 28.543918500086171 ] } },
{ "type": "Feature", "properties": { "cell_id": 245, "area_m2": 2500.0, "centroid_x": 714555.28044849285, "centroid_y": 3159470.006568355, "lat": 28.544369497126208, "lon": 77.192985761377344 }, "geometry": { "type": "Point", "coordinates": [ 77.192985761377344, 28.544369497126208 ] } },
{ "type": "Feature", "properties": { "cell_id": 246, "area_m2": 2500.0, "centroid_x": 714555.28044849285, "centroid_y": 3159520.006568355, "lat": 28.544820494133475, "lon": 77.192995107248805 }, "geometry": { "type": "Point", "coordinates": [ 77.192995107248805, 28.544820494133475 ] } },
{ "type": "Feature", "properties": { "cell_id": 247, "area_m2": 2500.0, "centroid_x": 714555.28044849285, "centroid_y": 3159570.006568355, "lat": 28.545271491107954, "lon": 77.193004453335149 }, "geometry": { "type": "Point", "coordinates": [ 77.193004453335149, 28.545271491107954 ] } },
{ "type": "Feature", "properties": { "cell_id": 248, "area_m2": 2224.1590303252083, "centroid_x": 714603.55986373289, "centroid_y": 3159272.4238311248, "lat": 28.542579343558451, "lon": 77.19344199402677 }, "geometry": { "type": "Point", "coordinates": [ 77.19344199402677, 28.542579343558451 ] } },
{ "type": "Feature", "properties": { "cell_id": 249, "area_m2": 2500.0, "centroid_x": 714605.28044849285, "centroid_y": 3159320.006568355, "lat": 28.543008252952628, "lon": 77.193468464665159 }, "geometry": { "type": "Point", "coordinates": [ 77.193468464665159, 28.543008252952628 ] } },
{ "type": "Feature", "properties": { "cell_id": 250, "area_m2": 2500.0, "centroid_x": 714605.28044849285, "centroid_y": 3159370.006568355, "lat": 28.543459249904188, "lon": 77.19347781206433 }, "geometry": { "type": "Point", "coordinates": [ 77.19347781206433, 28.543459249904188 ] } },
{ "type": "Feature", "properties": { "cell_id": 251, "area_m2": 2500.0, "centroid_x": 714605.28044849285, "centroid_y": 3159420.006568355, "lat": 28.543910246822968, "lon": 77.193487159678384 }, "geometry": { "type": "Point", "coordinates": [ 77.193487159678384, 28.543910246822968 ] } },
{ "type": "Feature", "properties": { "cell_id": 252, "area_m2": 2500.0, "centroid_x": 714605.28044849285, "centroid_y": 3159470.006568355, "lat": 28.544361243708966, "lon": 77.193496507507348 }, "geometry": { "type": "Point", "coordinates": [ 77.193496507507348, 28.544361243708966 ] } },
{ "type": "Feature", "properties": { "cell_id": 253, "area_m2": 2500.0, "centroid_x": 714605.28044849285, "centroid_y": 3159520.006568355, "lat": 28.544812240562191, "lon": 77.193505855551223 }, "geometry": { "type": "Point", "coordinates": [ 77.193505855551223, 28.544812240562191 ] } },
{ "type": "Feature", "properties": { "cell_id": 254, "area_m2": 2500.0, "centroid_x": 714605.28044849285, "centroid_y": 3159570.006568355, "lat": 28.545263237382635, "lon": 77.193515203809994 }, "geometry": { "type": "Point", "coordinates": [ 77.193515203809994, 28.545263237382635 ] } },
{ "type": "Feature", "properties": { "cell_id": 255, "area_m2": 818.46883676480502, "centroid_x": 714607.91831557394, "centroid_y": 3159603.4646256836, "lat": 28.545564591410461, "lon": 77.193548405329594 }, "geometry": { "type": "Point", "coordinates": [ 77.193548405329594, 28.545564591410461 ] } },
{ "type": "Feature", "properties": { "cell_id": 256, "area_m2": 1054.712248861324, "centroid_x": 714650.39036070439, "centroid_y": 3159283.2488239319, "lat": 28.542669252972203, "lon": 77.193922379773127 }, "geometry": { "type": "Point", "coordinates": [ 77.193922379773127, 28.542669252972203 ] } },
{ "type": "Feature", "properties": { "cell_id": 257, "area_m2": 2500.0, "centroid_x": 714655.28044849285, "centroid_y": 3159320.006568355, "lat": 28.542999998078717, "lon": 77.193979204063368 }, "geometry": { "type": "Point", "coordinates": [ 77.193979204063368, 28.542999998078717 ] } },
{ "type": "Feature", "properties": { "cell_id": 258, "area_m2": 2500.0, "centroid_x": 714655.28044849285, "centroid_y": 3159370.006568355, "lat": 28.543450994876203, "lon": 77.193988553634796 }, "geometry": { "type": "Point", "coordinates": [ 77.193988553634796, 28.543450994876203 ] } },
{ "type": "Feature", "properties": { "cell_id": 259, "area_m2": 2500.0, "centroid_x": 714655.28044849285, "centroid_y": 3159420.006568355, "lat": 28.543901991640908, "lon": 77.193997903421135 }, "geometry": { "type": "Point", "coordinates": [ 77.193997903421135, 28.543901991640908 ] } },
{ "type": "Feature", "properties": { "cell_id": 260, "area_m2": 2500.0, "centroid_x": 714655.28044849285, "centroid_y": 3159470.006568355, "lat": 28.54435298837284, "lon": 77.194007253422456 }, "geometry": { "type": "Point", "coordinates": [ 77.194007253422456, 28.54435298837284 ] } },
{ "type": "Feature", "properties": { "cell_id": 261, "area_m2": 2500.0, "centroid_x": 714655.28044849285, "centroid_y": 3159520.006568355, "lat": 28.544803985071979, "lon": 77.194016603638715 }, "geometry": { "type": "Point", "coordinates": [ 77.194016603638715, 28.544803985071979 ] } },
{ "type": "Feature", "properties": { "cell_id": 262, "area_m2": 2500.0, "centroid_x": 714655.28044849285, "centroid_y": 3159570.006568355, "lat": 28.545254981738349, "lon": 77.194025954069943 }, "geometry": { "type": "Point", "coordinates": [ 77.194025954069943, 28.545254981738349 ] } },
{ "type": "Feature", "properties": { "cell_id": 263, "area_m2": 1336.6317171254195, "centroid_x": 714656.8957116754, "centroid_y": 3159608.5402794112, "lat": 28.545602286483973, "lon": 77.194049660325206 }, "geometry": { "type": "Point", "coordinates": [ 77.194049660325206, 28.545602286483973 ] } },
{ "type": "Feature", "properties": { "cell_id": 264, "area_m2": 2240.1657406764066, "centroid_x": 714703.63328346284, "centroid_y": 3159322.2861077408, "lat": 28.543012574615766, "lon": 77.194473544161056 }, "geometry": { "type": "Point", "coordinates": [ 77.194473544161056, 28.543012574615766 ] } },
{ "type": "Feature", "properties": { "cell_id": 265, "area_m2": 2500.0, "centroid_x": 714705.28044849285, "centroid_y": 3159370.006568355, "lat": 28.543442737929407, "lon": 77.194499294990294 }, "geometry": { "type": "Point", "coordinates": [ 77.194499294990294, 28.543442737929407 ] } },
{ "type": "Feature", "properties": { "cell_id": 266, "area_m2": 2500.0, "centroid_x": 714705.28044849285, "centroid_y": 3159420.006568355, "lat": 28.543893734539999, "lon": 77.194508646948947 }, "geometry": { "type": "Point", "coordinates": [ 77.194508646948947, 28.543893734539999 ] } },
{ "type": "Feature", "properties": { "cell_id": 267, "area_m2": 2500.0, "centroid_x": 714705.28044849285, "centroid_y": 3159470.006568355, "lat": 28.544344731117818, "lon": 77.194517999122596 }, "geometry": { "type": "Point", "coordinates": [ 77.194517999122596, 28.544344731117818 ] } },
{ "type": "Feature", "properties": { "cell_id": 268, "area_m2": 2500.0, "centroid_x": 714705.28044849285, "centroid_y": 3159520.006568355, "lat": 28.544795727662855, "lon": 77.19452735151124 }, "geometry": { "type": "Point", "coordinates": [ 77.19452735151124, 28.544795727662855 ] } },
{ "type": "Feature", "properties": { "cell_id": 269, "area_m2": 2500.0, "centroid_x": 714705.28044849285, "centroid_y": 3159570.006568355, "lat": 28.545246724175104, "lon": 77.19453670411491 }, "geometry": { "type": "Point", "coordinates": [ 77.19453670411491, 28.545246724175104 ] } },
{ "type": "Feature", "properties": { "cell_id": 270, "area_m2": 1854.794597486034, "centroid_x": 714706.44446525467, "centroid_y": 3159613.675144386, "lat": 28.545640419393159, "lon": 77.194556763062366 }, "geometry": { "type": "Point", "coordinates": [ 77.194556763062366, 28.545640419393159 ] } },
{ "type": "Feature", "properties": { "cell_id": 271, "area_m2": 1430.992952210363, "centroid_x": 714745.37473522127, "centroid_y": 3159373.3857970121, "lat": 28.543466595821396, "lon": 77.194909483201101 }, "geometry": { "type": "Point", "coordinates": [ 77.194909483201101, 28.543466595821396 ] } },
{ "type": "Feature", "properties": { "cell_id": 272, "area_m2": 2397.094287779872, "centroid_x": 714754.34708668233, "centroid_y": 3159420.7784983753, "lat": 28.543892592464754, "lon": 77.19501000051342 }, "geometry": { "type": "Point", "coordinates": [ 77.19501000051342, 28.543892592464754 ] } },
{ "type": "Feature", "properties": { "cell_id": 273, "area_m2": 2500.0, "centroid_x": 714755.28044849285, "centroid_y": 3159470.006568355, "lat": 28.544336471943915, "lon": 77.19502874460774 }, "geometry": { "type": "Point", "coordinates": [ 77.19502874460774, 28.544336471943915 ] } },
{ "type": "Feature", "properties": { "cell_id": 274, "area_m2": 2500.0, "centroid_x": 714755.28044849285, "centroid_y": 3159520.006568355, "lat": 28.544787468334807, "lon": 77.195038099168769 }, "geometry": { "type": "Point", "coordinates": [ 77.195038099168769, 28.544787468334807 ] } },
{ "type": "Feature", "properties": { "cell_id": 275, "area_m2": 2500.0, "centroid_x": 714755.28044849285, "centroid_y": 3159570.006568355, "lat": 28.545238464692908, "lon": 77.195047453944866 }, "geometry": { "type": "Point", "coordinates": [ 77.195047453944866, 28.545238464692908 ] } },
{ "type": "Feature", "properties": { "cell_id": 276, "area_m2": 2356.1343161215332, "centroid_x": 714756.04860558256, "centroid_y": 3159618.6372453836, "lat": 28.545676982917239, "lon": 77.195064399485929 }, "geometry": { "type": "Point", "coordinates": [ 77.195064399485929, 28.545676982917239 ] } },
{ "type": "Feature", "properties": { "cell_id": 277, "area_m2": 1375.4606777900067, "centroid_x": 714795.6353300144, "centroid_y": 3159474.9002526649, "lat": 28.544373945253387, "lon": 77.195441881649188 }, "geometry": { "type": "Point", "coordinates": [ 77.195441881649188, 28.544373945253387 ] } },
{ "type": "Feature", "properties": { "cell_id": 278, "area_m2": 2484.7278923067288, "centroid_x": 714805.13665697211, "centroid_y": 3159520.1472357851, "lat": 28.544780499658117, "lon": 77.19554740411256 }, "geometry": { "type": "Point", "coordinates": [ 77.19554740411256, 28.544780499658117 ] } },
{ "type": "Feature", "properties": { "cell_id": 279, "area_m2": 2500.0, "centroid_x": 714805.28044849285, "centroid_y": 3159570.006568355, "lat": 28.545230203291752, "lon": 77.19555820355977 }, "geometry": { "type": "Point", "coordinates": [ 77.19555820355977, 28.545230203291752 ] } },
{ "type": "Feature", "properties": { "cell_id": 280, "area_m2": 2500.0, "centroid_x": 714805.28044849285, "centroid_y": 3159620.006568355, "lat": 28.545681199462894, "lon": 77.195567560723418 }, "geometry": { "type": "Point", "coordinates": [ 77.195567560723418, 28.545681199462894 ] } },
{ "type": "Feature", "properties": { "cell_id": 281, "area_m2": 723.87127284818291, "centroid_x": 714841.33397147048, "centroid_y": 3159530.4537164569, "lat": 28.544867481418176, "lon": 77.195919086748887 }, "geometry": { "type": "Point", "coordinates": [ 77.195919086748887, 28.544867481418176 ] } },
{ "type": "Feature", "properties": { "cell_id": 282, "area_m2": 2313.3309898747757, "centroid_x": 714853.71606998704, "centroid_y": 3159571.4275549487, "lat": 28.545235015726405, "lon": 77.196053238840094 }, "geometry": { "type": "Point", "coordinates": [ 77.196053238840094, 28.545235015726405 ] } },
{ "type": "Feature", "properties": { "cell_id": 283, "area_m2": 2500.0, "centroid_x": 714855.28044849285, "centroid_y": 3159620.006568355, "lat": 28.54567293598857, "lon": 77.196078312295683 }, "geometry": { "type": "Point", "coordinates": [ 77.196078312295683, 28.54567293598857 ] } },
{ "type": "Feature", "properties": { "cell_id": 284, "area_m2": 904.19389085562807, "centroid_x": 714857.53640066902, "centroid_y": 3159654.2723793662, "lat": 28.545981637965205, "lon": 77.196107771209313 }, "geometry": { "type": "Point", "coordinates": [ 77.196107771209313, 28.545981637965205 ] } },
{ "type": "Feature", "properties": { "cell_id": 285, "area_m2": 1951.6244802209312, "centroid_x": 714900.9591241267, "centroid_y": 3159623.4720875095, "lat": 28.545696643715647, "lon": 77.196545570060294 }, "geometry": { "type": "Point", "coordinates": [ 77.196545570060294, 28.545696643715647 ] } },
{ "type": "Feature", "properties": { "cell_id": 286, "area_m2": 753.57653775718063, "centroid_x": 714901.8810973973, "centroid_y": 3159652.9603186883, "lat": 28.545962472685698, "lon": 77.196560509152548 }, "geometry": { "type": "Point", "coordinates": [ 77.196560509152548, 28.545962472685698 ] } }
]
}
